{
  "norad_id": 61568,
  "name": "QIANFAN-35",
  "history": [
    {
      "epoch": "2026-04-11T20:46:34.921344Z",
      "apogee_km": 800.6422423009935,
      "perigee_km": 794.948857415935,
      "latitude_deg": 1.8698423454694884e-06,
      "longitude_deg": -88.9738392408295,
      "height_km": 802.1716836539407,
      "semi_major_axis_km": 7175.932549858464,
      "eccentricity": 0.0003967,
      "inclination_deg": 88.9795,
      "raan_deg": 62.7507,
      "arg_perigee_deg": 242.6742,
      "mean_anomaly_deg": 117.4049,
      "mean_motion_rev_day": 14.28187541
    },
    {
      "epoch": "2026-04-13T04:43:31.404000Z",
      "apogee_km": 800.6990006461656,
      "perigee_km": 794.8837718005379,
      "latitude_deg": 2.6921067355433214e-05,
      "longitude_deg": 150.32261645032216,
      "height_km": 802.4935397795384,
      "semi_major_axis_km": 7175.9283862233515,
      "eccentricity": 0.00040519,
      "inclination_deg": 88.9798,
      "raan_deg": 62.5946,
      "arg_perigee_deg": 235.834,
      "mean_anomaly_deg": 124.2471,
      "mean_motion_rev_day": 14.28188784
    },
    {
      "epoch": "2026-04-14T21:04:55.246080Z",
      "apogee_km": 800.7721964218445,
      "perigee_km": 794.8003930559616,
      "latitude_deg": -5.8765891022649994e-05,
      "longitude_deg": -96.88131287451013,
      "height_km": 802.8734769599131,
      "semi_major_axis_km": 7175.923294738903,
      "eccentricity": 0.0004161,
      "inclination_deg": 88.98,
      "raan_deg": 62.3974,
      "arg_perigee_deg": 227.4771,
      "mean_anomaly_deg": 132.6072,
      "mean_motion_rev_day": 14.28190304
    },
    {
      "epoch": "2026-04-15T20:37:24.098016Z",
      "apogee_km": 800.8336158507473,
      "perigee_km": 794.734083128682,
      "latitude_deg": 8.903080129909131e-06,
      "longitude_deg": -91.08323497071622,
      "height_km": 803.0948233565804,
      "semi_major_axis_km": 7175.920849489715,
      "eccentricity": 0.000425,
      "inclination_deg": 88.9802,
      "raan_deg": 62.2825,
      "arg_perigee_deg": 222.6791,
      "mean_anomaly_deg": 137.4074,
      "mean_motion_rev_day": 14.28191034
    },
    {
      "epoch": "2026-04-16T20:09:52.907616Z",
      "apogee_km": 800.8997103207112,
      "perigee_km": 794.6609677861379,
      "latitude_deg": -5.494777106098963e-06,
      "longitude_deg": -85.28508167091597,
      "height_km": 803.2955121739876,
      "semi_major_axis_km": 7175.917339053424,
      "eccentricity": 0.0004347,
      "inclination_deg": 88.9804,
      "raan_deg": 62.1675,
      "arg_perigee_deg": 218.3469,
      "mean_anomaly_deg": 141.7417,
      "mean_motion_rev_day": 14.28192082
    },
    {
      "epoch": "2026-04-17T21:23:15.158688Z",
      "apogee_km": 800.9733902841708,
      "perigee_km": 794.5806555177287,
      "latitude_deg": 4.756150916881596e-05,
      "longitude_deg": -104.7868577379973,
      "height_km": 803.5113165974235,
      "semi_major_axis_km": 7175.914022900949,
      "eccentricity": 0.00044543,
      "inclination_deg": 88.9805,
      "raan_deg": 62.0443,
      "arg_perigee_deg": 213.4881,
      "mean_anomaly_deg": 146.6033,
      "mean_motion_rev_day": 14.28193072
    },
    {
      "epoch": "2026-04-18T20:55:43.867200Z",
      "apogee_km": 801.0467401607857,
      "perigee_km": 794.5008743224198,
      "latitude_deg": 1.7715782232704906e-05,
      "longitude_deg": -98.98828410989925,
      "height_km": 803.7046509095278,
      "semi_major_axis_km": 7175.910807241602,
      "eccentricity": 0.0004561,
      "inclination_deg": 88.9807,
      "raan_deg": 61.9293,
      "arg_perigee_deg": 209.0004,
      "mean_anomaly_deg": 151.0938,
      "mean_motion_rev_day": 14.28194032
    },
    {
      "epoch": "2026-04-19T20:28:12.523008Z",
      "apogee_km": 801.1269478827862,
      "perigee_km": 794.4146037492892,
      "latitude_deg": -3.1792138536422375e-05,
      "longitude_deg": -93.18939182070555,
      "height_km": 803.885045450006,
      "semi_major_axis_km": 7175.907775816037,
      "eccentricity": 0.0004677,
      "inclination_deg": 88.9808,
      "raan_deg": 61.8144,
      "arg_perigee_deg": 204.8171,
      "mean_anomaly_deg": 155.2799,
      "mean_motion_rev_day": 14.28194937
    },
    {
      "epoch": "2026-04-20T13:17:07.241856Z",
      "apogee_km": 801.1903297686058,
      "perigee_km": 794.3472424928359,
      "latitude_deg": 2.0260450577234996e-06,
      "longitude_deg": 13.809936456317038,
      "height_km": 804.0099279447915,
      "semi_major_axis_km": 7175.90578613072,
      "eccentricity": 0.00047681,
      "inclination_deg": 88.9809,
      "raan_deg": 61.7323,
      "arg_perigee_deg": 201.9595,
      "mean_anomaly_deg": 158.1396,
      "mean_motion_rev_day": 14.28195531
    },
    {
      "epoch": "2026-04-21T19:33:09.654048Z",
      "apogee_km": 801.299351027521,
      "perigee_km": 794.2296528678025,
      "latitude_deg": 1.716501448823437e-05,
      "longitude_deg": -81.59085254601764,
      "height_km": 804.2151888674713,
      "semi_major_axis_km": 7175.901501947661,
      "eccentricity": 0.0004926,
      "inclination_deg": 88.981,
      "raan_deg": 61.5846,
      "arg_perigee_deg": 196.8406,
      "mean_anomaly_deg": 163.2626,
      "mean_motion_rev_day": 14.2819681
    },
    {
      "epoch": "2026-04-22T20:46:31.594080Z",
      "apogee_km": 801.3856787732793,
      "perigee_km": 794.135152024759,
      "latitude_deg": 4.7022124661174515e-05,
      "longitude_deg": -101.09113339802316,
      "height_km": 804.3631782565025,
      "semi_major_axis_km": 7175.897415399018,
      "eccentricity": 0.0005052,
      "inclination_deg": 88.9812,
      "raan_deg": 61.4616,
      "arg_perigee_deg": 192.7618,
      "mean_anomaly_deg": 167.345,
      "mean_motion_rev_day": 14.2819803
    },
    {
      "epoch": "2026-04-23T13:35:26.169504Z",
      "apogee_km": 801.4536828426644,
      "perigee_km": 794.0622240048406,
      "latitude_deg": -9.35579516949699e-06,
      "longitude_deg": 5.908792596133548,
      "height_km": 804.4633637762524,
      "semi_major_axis_km": 7175.894953423753,
      "eccentricity": 0.00051502,
      "inclination_deg": 88.9813,
      "raan_deg": 61.3795,
      "arg_perigee_deg": 190.0861,
      "mean_anomaly_deg": 170.0231,
      "mean_motion_rev_day": 14.28198765
    }
  ]
}